{"type": "FeatureCollection", "features": [ {"type": "Feature", "properties": {"norad_id": 65943, "name": "E-KAGAKU-1", "group": "stations", "lat": -7.1552535150108305, "lon": 166.92664429970614, "alt_km": 396.4057994239329, "timestamp": "2025-12-06T05:40:08.031189+00:00", "meta": {"OBJECT_NAME": "E-KAGAKU-1", "OBJECT_ID": "1998-067XQ", "EPOCH": "2025-12-04T19:50:44.475360", "MEAN_MOTION": 15.58070378, "ECCENTRICITY": 0.00035721, "INCLINATION": 51.6297, "RA_OF_ASC_NODE": 179.7082, "ARG_OF_PERICENTER": 159.4273, "MEAN_ANOMALY": 200.6864, "EPHEMERIS_TYPE": 0, "CLASSIFICATION_TYPE": "U", "NORAD_CAT_ID": 65943, "ELEMENT_SET_NO": 999, "REV_AT_EPOCH": 862, "BSTAR": 0.0013396072, "MEAN_MOTION_DOT": 0.00103476, "MEAN_MOTION_DDOT": 0}, "tle": {"line1": "1 65943U 98067XQ  25338.82690365  .00103476  00000+0  13396-2 0  9991", "line2": "2 65943  51.6297 179.7082 0003572 159.4273 200.6864 15.58070378  8627"}}, "geometry": {"type": "Point", "coordinates": [166.92664429970614, -7.1552535150108305]}}, {"type": "Feature", "properties": {"norad_id": 66052, "name": "HRC MONOBLOCK CAMERA", "group": "stations", "lat": 51.5146674593593, "lon": -91.38943879234847, "alt_km": 398.1814542436987, "timestamp": "2025-12-06T05:40:08.031199+00:00", "meta": {"OBJECT_NAME": "HRC MONOBLOCK CAMERA", "OBJECT_ID": "1998-067XR", "EPOCH": "2025-12-05T06:06:43.576992", "MEAN_MOTION": 15.53416514, "ECCENTRICITY": 0.00042499, "INCLINATION": 51.6284, "RA_OF_ASC_NODE": 178.8082, "ARG_OF_PERICENTER": 154.3849, "MEAN_ANOMALY": 205.7352, "EPHEMERIS_TYPE": 0, "CLASSIFICATION_TYPE": "U", "NORAD_CAT_ID": 66052, "ELEMENT_SET_NO": 999, "REV_AT_EPOCH": 767, "BSTAR": 0.00075336119, "MEAN_MOTION_DOT": 0.00048428, "MEAN_MOTION_DDOT": 0}, "tle": {"line1": "1 66052U 98067XR  25339.25467103  .00048428  00000+0  75336-3 0  9991", "line2": "2 66052  51.6284 178.8082 0004249 154.3849 205.7352 15.53416514  7673"}}, "geometry": {"type": "Point", "coordinates": [-91.38943879234847, 51.5146674593593]}}, {"type": "Feature", "properties": {"norad_id": 66174, "name": "HTV-X1", "group": "stations", "lat": 51.56886671655641, "lon": -98.42538472463376, "alt_km": 412.784766428078, "timestamp": "2025-12-06T05:40:08.031212+00:00", "meta": {"OBJECT_NAME": "HTV-X1", "OBJECT_ID": "2025-241A", "EPOCH": "2025-12-05T06:04:12.236160", "MEAN_MOTION": 15.49328184, "ECCENTRICITY": 0.00035858, "INCLINATION": 51.6297, "RA_OF_ASC_NODE": 179.5463, "ARG_OF_PERICENTER": 206.2517, "MEAN_ANOMALY": 153.8291, "EPHEMERIS_TYPE": 0, "CLASSIFICATION_TYPE": "U", "NORAD_CAT_ID": 66174, "ELEMENT_SET_NO": 999, "REV_AT_EPOCH": 51, "BSTAR": 0.0002719745, "MEAN_MOTION_DOT": 0.00014736, "MEAN_MOTION_DDOT": 0}, "tle": {"line1": "1 66174U 25241A   25339.25291940  .00014736  00000+0  27197-3 0  9991", "line2": "2 66174  51.6297 179.5463 0003585 206.2517 153.8291 15.49328184   515"}}, "geometry": {"type": "Point", "coordinates": [-98.42538472463376, 51.56886671655641]}}, {"type": "Feature", "properties": {"norad_id": 66515, "name": "SZ-21 MODULE", "group": "stations", "lat": 22.28353211363305, "lon": -151.9358112662337, "alt_km": 377.3980490617996, "timestamp": "2025-12-06T05:40:08.031222+00:00", "meta": {"OBJECT_NAME": "SZ-21 MODULE", "OBJECT_ID": "2025-246C", "EPOCH": "2025-12-05T06:01:59.906784", "MEAN_MOTION": 15.61952064, "ECCENTRICITY": 0.00060092, "INCLINATION": 41.4774, "RA_OF_ASC_NODE": 61.708, "ARG_OF_PERICENTER": 217.7851, "MEAN_ANOMALY": 142.2567, "EPHEMERIS_TYPE": 0, "CLASSIFICATION_TYPE": "U", "NORAD_CAT_ID": 66515, "ELEMENT_SET_NO": 999, "REV_AT_EPOCH": 327, "BSTAR": 0.00043191945, "MEAN_MOTION_DOT": 0.00038608, "MEAN_MOTION_DDOT": 0}, "tle": {"line1": "1 66515U 25246C   25339.25138781  .00038608  00000+0  43192-3 0  9995", "line2": "2 66515  41.4774  61.7080 0006009 217.7851 142.2567 15.61952064  3278"}}, "geometry": {"type": "Point", "coordinates": [-151.9358112662337, 22.28353211363305]}}, {"type": "Feature", "properties": {"norad_id": 66645, "name": "SHENZHOU-22", "group": "stations", "lat": -28.611943495519135, "lon": 18.027600858159612, "alt_km": 387.6578942828546, "timestamp": "2025-12-06T05:40:08.031233+00:00", "meta": {"OBJECT_NAME": "SHENZHOU-22", "OBJECT_ID": "2025-272A", "EPOCH": "2025-12-05T06:48:03.993120", "MEAN_MOTION": 15.5871605, "ECCENTRICITY": 0.00098342, "INCLINATION": 41.4682, "RA_OF_ASC_NODE": 61.9587, "ARG_OF_PERICENTER": 333.0075, "MEAN_ANOMALY": 27.0251, "EPHEMERIS_TYPE": 0, "CLASSIFICATION_TYPE": "U", "NORAD_CAT_ID": 66645, "ELEMENT_SET_NO": 999, "REV_AT_EPOCH": 26289, "BSTAR": 0.00043162186, "MEAN_MOTION_DOT": 0.00034071, "MEAN_MOTION_DDOT": 0}, "tle": {"line1": "1 66645U 25272A   25339.28337955  .00034071  00000+0  43162-3 0  9992", "line2": "2 66645  41.4682  61.9587 0009834 333.0075  27.0251 15.58716050262897"}}, "geometry": {"type": "Point", "coordinates": [18.027600858159612, -28.611943495519135]}}, {"type": "Feature", "properties": {"norad_id": 66646, "name": "CZ-2F R/B", "group": "stations", "lat": -25.065446976245465, "lon": -97.15485941065876, "alt_km": 167.8437624308508, "timestamp": "2025-12-06T05:40:08.031243+00:00", "meta": {"OBJECT_NAME": "CZ-2F R/B", "OBJECT_ID": "2025-272B", "EPOCH": "2025-12-05T15:30:36.913248", "MEAN_MOTION": 16.25262827, "ECCENTRICITY": 0.0054499, "INCLINATION": 41.4567, "RA_OF_ASC_NODE": 54.8075, "ARG_OF_PERICENTER": 209.5071, "MEAN_ANOMALY": 150.2711, "EPHEMERIS_TYPE": 0, "CLASSIFICATION_TYPE": "U", "NORAD_CAT_ID": 66646, "ELEMENT_SET_NO": 999, "REV_AT_EPOCH": 169, "BSTAR": 0.0005771, "MEAN_MOTION_DOT": 0.02719582, "MEAN_MOTION_DDOT": 7.7384e-06}, "tle": {"line1": "1 66646U 25272B   25339.64626057  .02719582  77384-5  57710-3 0  9995", "line2": "2 66646  41.4567  54.8075 0054499 209.5071 150.2711 16.25262827  1695"}}, "geometry": {"type": "Point", "coordinates": [-97.15485941065876, -25.065446976245465]}}, {"type": "Feature", "properties": {"norad_id": 66664, "name": "SOYUZ-MS 28", "group": "stations", "lat": 51.56886682902616, "lon": -98.42538046463368, "alt_km": 412.78476631720696, "timestamp": "2025-12-06T05:40:08.031253+00:00", "meta": {"OBJECT_NAME": "SOYUZ-MS 28", "OBJECT_ID": "2025-275A", "EPOCH": "2025-12-05T06:04:12.236160", "MEAN_MOTION": 15.49328184, "ECCENTRICITY": 0.00035858, "INCLINATION": 51.6297, "RA_OF_ASC_NODE": 179.5463, "ARG_OF_PERICENTER": 206.2517, "MEAN_ANOMALY": 153.8291, "EPHEMERIS_TYPE": 0, "CLASSIFICATION_TYPE": "U", "NORAD_CAT_ID": 66664, "ELEMENT_SET_NO": 999, "REV_AT_EPOCH": 128, "BSTAR": 0.0002719745, "MEAN_MOTION_DOT": 0.00014736, "MEAN_MOTION_DDOT": 0}, "tle": {"line1": "1 66664U 25275A   25339.25291940  .00014736  00000+0  27197-3 0  9992", "line2": "2 66664  51.6297 179.5463 0003585 206.2517 153.8291 15.49328184  1284"}}, "geometry": {"type": "Point", "coordinates": [-98.42538046463368, 51.56886682902616]}}, {"type": "Feature", "properties": {"norad_id": 66906, "name": "1998-067XS", "group": "stations", "lat": 51.05854402847558, "lon": -84.00521252394184, "alt_km": 408.8146054771487, "timestamp": "2025-12-06T05:40:08.031264+00:00", "meta": {"OBJECT_NAME": "1998-067XS", "OBJECT_ID": "1998-067XS", "EPOCH": "2025-12-04T20:45:28.746720", "MEAN_MOTION": 15.49986178, "ECCENTRICITY": 0.00041746, "INCLINATION": 51.6291, "RA_OF_ASC_NODE": 181.4578, "ARG_OF_PERICENTER": 168.934, "MEAN_ANOMALY": 191.1741, "EPHEMERIS_TYPE": 0, "CLASSIFICATION_TYPE": "U", "NORAD_CAT_ID": 66906, "ELEMENT_SET_NO": 999, "REV_AT_EPOCH": 39, "BSTAR": 0.000624818, "MEAN_MOTION_DOT": 0.00035352, "MEAN_MOTION_DDOT": 0}, "tle": {"line1": "1 66906U 98067XS  25338.86491605  .00035352  00000+0  62482-3 0  9999", "line2": "2 66906  51.6291 181.4578 0004174 168.9340 191.1741 15.49986178   398"}}, "geometry": {"type": "Point", "coordinates": [-84.00521252394184, 51.05854402847558]}}, {"type": "Feature", "properties": {"norad_id": 66907, "name": "1998-067XT", "group": "stations", "lat": 50.704857207843865, "lon": -80.86954659882737, "alt_km": 408.39924701876043, "timestamp": "2025-12-06T05:40:08.031274+00:00", "meta": {"OBJECT_NAME": "1998-067XT", "OBJECT_ID": "1998-067XT", "EPOCH": "2025-12-04T14:33:58.780512", "MEAN_MOTION": 15.5013594, "ECCENTRICITY": 0.00051159, "INCLINATION": 51.6278, "RA_OF_ASC_NODE": 182.735, "ARG_OF_PERICENTER": 181.696, "MEAN_ANOMALY": 178.4012, "EPHEMERIS_TYPE": 0, "CLASSIFICATION_TYPE": "U", "NORAD_CAT_ID": 66907, "ELEMENT_SET_NO": 999, "REV_AT_EPOCH": 35, "BSTAR": 0.0016214223, "MEAN_MOTION_DOT": 0.00093671, "MEAN_MOTION_DDOT": 0}, "tle": {"line1": "1 66907U 98067XT  25338.60693033  .00093671  00000+0  16214-2 0  9990", "line2": "2 66907  51.6278 182.7350 0005115 181.6960 178.4012 15.50135940   352"}}, "geometry": {"type": "Point", "coordinates": [-80.86954659882737, 50.704857207843865]}}, {"type": "Feature", "properties": {"norad_id": 66908, "name": "1998-067XU", "group": "stations", "lat": 50.583696152890106, "lon": -79.93878150882692, "alt_km": 408.3157068842329, "timestamp": "2025-12-06T05:40:08.031284+00:00", "meta": {"OBJECT_NAME": "1998-067XU", "OBJECT_ID": "1998-067XU", "EPOCH": "2025-12-04T23:50:53.483712", "MEAN_MOTION": 15.50281808, "ECCENTRICITY": 0.00055383, "INCLINATION": 51.6288, "RA_OF_ASC_NODE": 180.8149, "ARG_OF_PERICENTER": 185.3725, "MEAN_ANOMALY": 174.7205, "EPHEMERIS_TYPE": 0, "CLASSIFICATION_TYPE": "U", "NORAD_CAT_ID": 66908, "ELEMENT_SET_NO": 999, "REV_AT_EPOCH": 41, "BSTAR": 0.0015643981, "MEAN_MOTION_DOT": 0.00090804, "MEAN_MOTION_DDOT": 0}, "tle": {"line1": "1 66908U 98067XU  25338.99367458  .00090804  00000+0  15644-2 0  9993", "line2": "2 66908  51.6288 180.8149 0005538 185.3725 174.7205 15.50281808   413"}}, "geometry": {"type": "Point", "coordinates": [-79.93878150882692, 50.583696152890106]}}]}